[{"OBJECT_NAME":"STARLINK-34517","OBJECT_ID":"2025-137B","EPOCH":"2026-03-09T21:29:22.672320","MEAN_MOTION":15.30211996,"ECCENTRICITY":0.00010947,"INCLINATION":53.1569,"RA_OF_ASC_NODE":334.4805,"ARG_OF_PERICENTER":107.203,"MEAN_ANOMALY":252.9091,"EPHEMERIS_TYPE":0,"CLASSIFICATION_TYPE":"U","NORAD_CAT_ID":64595,"ELEMENT_SET_NO":999,"REV_AT_EPOCH":4076,"BSTAR":0.00087225943,"MEAN_MOTION_DOT":0.00025573,"MEAN_MOTION_DDOT":0},{"OBJECT_NAME":"SL-3 R\/B","OBJECT_ID":"1981-065B","EPOCH":"2026-03-09T21:58:16.284000","MEAN_MOTION":15.33300883,"ECCENTRICITY":0.00117648,"INCLINATION":97.6337,"RA_OF_ASC_NODE":111.1786,"ARG_OF_PERICENTER":10.529,"MEAN_ANOMALY":349.6196,"EPHEMERIS_TYPE":0,"CLASSIFICATION_TYPE":"U","NORAD_CAT_ID":12586,"ELEMENT_SET_NO":999,"REV_AT_EPOCH":43499,"BSTAR":0.00030084921,"MEAN_MOTION_DOT":9.62e-5,"MEAN_MOTION_DDOT":0}]
